0 SL-3 DEB
1 25655U 88032D   13282.84375439  .00001855  00000-0  15693-3 0  5737
2 25655 097.6815 336.5943 0035121 208.1705 204.4828 14.98821561369460
0 SL-3 DEB
1 25655U 88032D   13287.11220288  .00001884  00000-0  15915-3 0  5754
2 25655 097.6813 340.7998 0035374 193.8966 196.0294 14.98841134370108
0 SL-3 DEB
1 25655U 88032D   13289.11912625  .00001907  00000-0  16096-3 0  5767
2 25655 097.6808 342.7773 0035477 187.3315 224.8827 14.98855918370405
0 SL-3 DEB
1 25655U 88032D   13291.12198833  .00001532  00000-0  13021-3 0  5778
2 25655 097.6802 344.7508 0035582 180.8054 231.8875 14.98865261370708
0 SL-3 DEB
1 25655U 88032D   13293.12473512  .00002093  00000-0  17604-3 0  5785
2 25655 097.6804 346.7239 0035597 174.0511 238.5773 14.98869371371003
0 SL-3 DEB
1 25655U 88032D   13295.12754440  .00001411  00000-0  12031-3 0  5792
2 25655 097.6794 348.6970 0035720 168.0350 244.9022 14.98879776371307
